NORAD_CAT_ID,OBJECT_NAME,OBJECT_TYPE,EPOCH,MEAN_MOTION,ECCENTRICITY,INCLINATION,RA_OF_ASC_NODE,ARG_OF_PERICENTER,MEAN_ANOMALY,BSTAR,MEAN_MOTION_DOT,MEAN_MOTION_DDOT,TLE_LINE0,TLE_LINE1,TLE_LINE2,SEMIMAJOR_AXIS,PERIOD,APOGEE,PERIGEE,DECAYED
51121.0,STARLINK-3399,PAYLOAD,2022-05-01 14:00:01,15.31892239,0.0001531999999999,53.2171,131.80700000000002,52.1511,212.9953,-0.022345,-0.00648898,0.0,0 STARLINK-3399,1 51121U 22005T   22121.58334491 -.00648898  00000-0 -22345-1 0  9996,2 51121  53.2171 131.8070 0001532  52.1511 212.9953 15.31892239  3644,6848.304,94.001,471.218,469.12,0.0
51121.0,STARLINK-3399,PAYLOAD,2022-05-01 22:00:01,15.31432707,0.0001568,53.2173,130.2537,45.2467,258.9813,-0.022435,-0.00642637,0.0,0 STARLINK-3399,1 51121U 22005T   22121.91668981 -.00642637  00000-0 -22435-1 0  9992,2 51121  53.2173 130.2537 0001568  45.2467 258.9813 15.31432707  3677,6849.674,94.03,472.61300000000006,470.465,0.0
51121.0,STARLINK-3399,PAYLOAD,2022-05-02 14:00:01,15.30524143,0.0001437,53.2171,127.155,48.1826,332.3673,-0.023243,-0.00646806,0.0,0 STARLINK-3399,1 51121U 22005T   22122.58334491 -.00646806  00000-0 -23243-1 0  9992,2 51121  53.2171 127.1550 0001437  48.1826 332.3673 15.30524143 17548,6852.384,94.085,475.234,473.265,0.0
51121.0,STARLINK-3399,PAYLOAD,2022-05-02 22:00:01,15.30065846,0.0001618,53.2173,125.6048,39.4083,18.58,-0.023444,-0.00643423,0.0,0 STARLINK-3399,1 51121U 22005T   22122.91668981 -.00643423  00000-0 -23444-1 0  9998,2 51121  53.2173 125.6048 0001618  39.4083  18.5800 15.30065846  3667,6853.753000000002,94.114,476.727,474.509,0.0
51121.0,STARLINK-3399,PAYLOAD,2022-05-03 14:00:01,15.291554500000002,0.0001629,53.2171,122.5126,49.0057,82.0195,-0.024147,-0.00644212,0.0,0 STARLINK-3399,1 51121U 22005T   22123.58334491 -.00644212  00000-0 -24147-1 0  9996,2 51121  53.2171 122.5126 0001629  49.0057  82.0195 15.29155450  3659,6856.473000000001,94.17,479.455,477.221,0.0
51121.0,STARLINK-3399,PAYLOAD,2022-05-03 22:00:00,15.28701013,0.000176,53.2172,120.9659,42.5547,124.2008,-0.024609,-0.00647184,0.0,0 STARLINK-3399,1 51121U 22005T   22123.91667824 -.00647184  00000-0 -24609-1 0  9996,2 51121  53.2172 120.9659 0001760  42.5547 124.2008 15.28701013 17750,6857.831,94.198,480.903,478.489,0.0
51121.0,STARLINK-3399,PAYLOAD,2022-05-04 14:00:01,15.27654917,0.0001645,53.2159,117.8813,40.7448,195.9012,-0.01811,-0.00466425,0.0,0 STARLINK-3399,1 51121U 22005T   22124.58334491 -.00466425  00000-0 -18110-1 0  9998,2 51121  53.2159 117.8813 0001645  40.7448 195.9012 15.27654917  3635,6860.962,94.262,483.955,481.698,0.0
51121.0,STARLINK-3399,PAYLOAD,2022-05-04 22:00:01,15.27332305,0.0001652,53.2173,116.3361,46.9876,223.7357,-0.025543,-0.00644298,0.0,0 STARLINK-3399,1 51121U 22005T   22124.91668981 -.00644298  00000-0 -25543-1 0  9993,2 51121  53.2173 116.3361 0001652  46.9876 223.7357 15.27332305  3685,6861.928000000001,94.282,484.926,482.659,0.0
51121.0,STARLINK-3399,PAYLOAD,2022-05-05 06:00:00,15.26876498,0.0001818,53.2173,114.7971,38.9871,265.2108,-0.025893,-0.00644131,0.0,0 STARLINK-3399,1 51121U 22005T   22125.25001157 -.00644131  00000-0 -25893-1 0  9991,2 51121  53.2173 114.7971 0001818  38.9871 265.2108 15.26876498 17959,6863.293000000002,94.31,486.406,483.911,0.0
51121.0,STARLINK-3399,PAYLOAD,2022-05-05 14:00:01,15.26378467,0.0001592,53.2161,113.258,42.7302,294.4792,-0.023685,-0.00584318,0.0,0 STARLINK-3399,1 51121U 22005T   22125.58334491 -.00584318  00000-0 -23685-1 0  9994,2 51121  53.2161 113.2580 0001592  42.7302 294.4792 15.26378467  3622,6864.786,94.341,487.744,485.5580000000001,0.0
51121.0,STARLINK-3399,PAYLOAD,2022-05-05 22:00:00,15.258639000000002,0.0001491,53.2161,111.7179,40.6404,329.0454,-0.020576,-0.00499551,0.0,0 STARLINK-3399,1 51121U 22005T   22125.91667824 -.00499551  00000-0 -20576-1 0  9990,2 51121  53.2161 111.7179 0001491  40.6404 329.0454 15.25863900  3627,6866.33,94.373,489.218,487.171,0.0
51121.0,STARLINK-3399,PAYLOAD,2022-05-06 14:00:01,15.24978446,0.0001693,53.2161,108.6448,35.0447,37.8726,-0.022765,-0.00535504,0.0,0 STARLINK-3399,1 51121U 22005T   22126.58334491 -.00535504  00000-0 -22765-1 0  9996,2 51121  53.2161 108.6448 0001693  35.0447  37.8726 15.24978446 18151,6868.986999999999,94.428,492.015,489.689,0.0
51121.0,STARLINK-3399,PAYLOAD,2022-05-06 22:00:00,15.24598191,0.0001754,53.2174,107.1063,40.1805,63.5007,-0.027732,-0.00643889,0.0,0 STARLINK-3399,1 51121U 22005T   22126.91667824 -.00643889  00000-0 -27732-1 0  9997,2 51121  53.2174 107.1063 0001754  40.1805  63.5007 15.24598191 18215,6870.129,94.451,493.199,490.789,0.0
51121.0,STARLINK-3399,PAYLOAD,2022-05-07 14:00:01,15.2368696,0.0001676999999999,53.2172,104.0394,47.0557,116.5848,-0.028527,-0.00644437,0.0,0 STARLINK-3399,1 51121U 22005T   22127.58334491 -.00644437  00000-0 -28527-1 0  9995,2 51121  53.2172 104.0394 0001677  47.0557 116.5848 15.23686960  3666,6872.868,94.508,495.886,493.58,0.0
51121.0,STARLINK-3399,PAYLOAD,2022-05-07 22:00:00,15.23231543,0.0001788,53.2174,102.506,44.9187,147.8804,-0.028906,-0.00644203,0.0,0 STARLINK-3399,1 51121U 22005T   22127.91667824 -.00644203  00000-0 -28906-1 0  9993,2 51121  53.2174 102.5060 0001788  44.9187 147.8804 15.23231543  3661,6874.238,94.536,497.332,494.874,0.0
51121.0,STARLINK-3399,PAYLOAD,2022-05-08 06:00:00,15.22774868,0.0001833,53.2173,100.9764,44.7515,176.6582,-0.029263,-0.00643409,0.0,0 STARLINK-3399,1 51121U 22005T   22128.25001157 -.00643409  00000-0 -29263-1 0  9996,2 51121  53.2173 100.9764 0001833  44.7515 176.6582 15.22774868 18410,6875.611999999999,94.564,498.73800000000006,496.217,0.0
51121.0,STARLINK-3399,PAYLOAD,2022-05-08 14:00:01,15.22321028,0.0001549,53.2173,99.4451,55.2764,194.1967,-0.029825,-0.006467,0.0,0 STARLINK-3399,1 51121U 22005T   22128.58334491 -.00646700  00000-0 -29825-1 0  9993,2 51121  53.2173  99.4451 0001549  55.2764 194.1967 15.22321028  3650,6876.979,94.592,499.909,497.778,0.0
51121.0,STARLINK-3399,PAYLOAD,2022-05-08 22:00:00,15.21863486,0.0001685,53.2174,97.9149,47.1385,229.8511,-0.030017,-0.0064242999999999,0.0,0 STARLINK-3399,1 51121U 22005T   22128.91667824 -.00642430  00000-0 -30017-1 0  9990,2 51121  53.2174  97.9149 0001685  47.1385 229.8511 15.21863486  3657,6878.357,94.621,501.381,499.06300000000016,0.0
51121.0,STARLINK-3399,PAYLOAD,2022-05-09 14:00:01,15.20953944,0.0001411,53.2173,94.8604,56.4667,273.9742,-0.031077,-0.00647111,0.0,0 STARLINK-3399,1 51121U 22005T   22129.58335648 -.00647111  00000-0 -31077-1 0  9998,2 51121  53.2173  94.8604 0001411  56.4667 273.9742 15.20953944 18617,6881.099,94.677,503.935,501.99300000000005,0.0
51121.0,STARLINK-3399,PAYLOAD,2022-05-09 22:00:00,15.20495695,0.000154,53.2176,93.3338,48.3409,307.9105,-0.031206,-0.00641532,0.0,0 STARLINK-3399,1 51121U 22005T   22129.91667824 -.00641532  00000-0 -31206-1 0  9994,2 51121  53.2176  93.3338 0001540  48.3409 307.9105 15.20495695  3647,6882.481,94.706,505.406,503.286,0.0
51121.0,STARLINK-3399,PAYLOAD,2022-05-10 14:00:01,15.19585952,0.0001575,53.2174,90.2855,44.1319,2.222,-0.032264,-0.00645543,0.0,0 STARLINK-3399,1 51121U 22005T   22130.58334491 -.00645543  00000-0 -32264-1 0  9991,2 51121  53.2174  90.2855 0001575  44.1319   2.2220 15.19585952  3644,6885.228,94.763,508.177,506.009,0.0
51121.0,STARLINK-3399,PAYLOAD,2022-05-10 18:00:00,15.19356373,0.0001663,53.2172,89.5232,48.5342,190.0042,-0.032303,-0.00642262,0.0,0 STARLINK-3399,1 51121U 22005T   22130.75001157 -.00642262  00000-0 -32303-1 0  9999,2 51121  53.2172  89.5232 0001663  48.5342 190.0042 15.19356373 18797,6885.922,94.777,508.932,506.641,0.0
51121.0,STARLINK-3399,PAYLOAD,2022-05-11 22:00:00,15.17761587,0.0001786,53.2176,84.2,42.7717,97.2178,-0.033839,-0.00642357,0.0,0 STARLINK-3399,1 51121U 22005T   22131.91667824 -.00642357  00000-0 -33839-1 0  9997,2 51121  53.2176  84.2000 0001786  42.7717  97.2178 15.17761587 18977,6890.744000000002,94.877,513.84,511.379,0.0
51121.0,STARLINK-3399,PAYLOAD,2022-05-12 14:00:01,15.168511,0.0001747,53.2174,81.1641,46.0646,137.4563,-0.034831,-0.00650826,0.0,0 STARLINK-3399,1 51121U 22005T   22132.58334491 -.00650826  00000-0 -34831-1 0  9995,2 51121  53.2174  81.1641 0001747  46.0646 137.4563 15.16851100  1301,6893.501,94.934,516.571,514.1619999999998,0.0
51121.0,STARLINK-3399,PAYLOAD,2022-05-12 22:00:00,15.16394501,0.000179,53.2176,79.6476,46.0226,158.4431,-0.035197,-0.00649211,0.0,0 STARLINK-3399,1 51121U 22005T   22132.91667824 -.00649211  00000-0 -35197-1 0  9993,2 51121  53.2176  79.6476 0001790  46.0226 158.4431 15.16394501  1307,6894.885,94.962,517.984,515.516,0.0
51121.0,STARLINK-3399,PAYLOAD,2022-05-13 06:00:00,15.15937046,0.0001819,53.2174,78.1337,45.5708,179.2917,-0.035505,-0.00646546,0.0,0 STARLINK-3399,1 51121U 22005T   22133.25001157 -.00646546  00000-0 -35505-1 0  9993,2 51121  53.2174  78.1337 0001819  45.5708 179.2917 15.15937046 19176,6896.272,94.991,519.3919999999998,516.883,0.0
51121.0,STARLINK-3399,PAYLOAD,2022-05-13 14:00:01,15.15484097,0.0001563,53.2174,76.6177,55.9793,188.7324,-0.036234,-0.00651024,0.0,0 STARLINK-3399,1 51121U 22005T   22133.58334491 -.00651024  00000-0 -36234-1 0  9996,2 51121  53.2174  76.6177 0001563  55.9793 188.7324 15.15484097  1302,6897.646,95.019,520.589,518.433,0.0
51121.0,STARLINK-3399,PAYLOAD,2022-05-13 22:00:00,15.15027494,0.0001568,53.2175,75.1046,57.17100000000001,206.8428,-0.036608,-0.00649353,0.0,0 STARLINK-3399,1 51121U 22005T   22133.91667824 -.00649353  00000-0 -36608-1 0  9999,2 51121  53.2175  75.1046 0001568  57.1710 206.8428 15.15027494  1301,6899.031999999997,95.048,521.979,519.815,0.0
51121.0,STARLINK-3399,PAYLOAD,2022-05-14 06:00:00,15.14569806,0.0001649,53.2174,73.5938,49.4712,233.2965,-0.036892,-0.00646151,0.0,0 STARLINK-3399,1 51121U 22005T   22134.25001157 -.00646151  00000-0 -36892-1 0  9996,2 51121  53.2174  73.5938 0001649  49.4712 233.2965 15.14569806 19326,6900.422,95.077,523.425,521.149,0.0
